#dP2021  4  5  0  0  0.00000000      97 __u+U IGS14 FIT  IAC
## 2152  86400.00000000   900.00000000 59309 0.0000000000000
+  124   C01C02C03C04C05C06C07C08C09C10C11C12C13C14C16C19C20
+        C21C22C23C24C25C26C27C28C29C30C32C33C34C35C36C37C38
+        C39C40C41C42C43C44C45C46C60E01E02E03E04E05E07E08E09
+        E11E12E13E14E15E18E19E21E24E25E26E27E30E31E33E36G01
+        G02G03G04G05G06G07G08G09G10G11G12G13G14G15G16G17G18
+        G19G20G21G22G23G24G25G26G27G28G29G30G31G32J01J02J03
+        J07R01R02R03R04R05R07R08R09R11R12R13R14R15R16R17R18
+        R19R20R21R22R24  0  0  0  0  0  0  0  0  0  0  0  0
++        13 12 13 14 13  9  9  9  9  9  8  8  8  8  9  7  7
++         7  7  7  7  7  7  7  7  7  7  7  7  7  7  8  7  8
++         8  8  7  8  7  7  8  8 16  4  4  4  4  4  4  4  4
++         4  4  4  5  5  4  4  4  4  4  4  4  5  4  4  4  3
++         3  3  3  3  3  4  3  3  3  4  3  4  3  4  3  3  3
++         3  3  4  3  3  3  3  3  4  3  3  3  3  3  8  8  8
++        13  7  5  5  5  5  5  5  5  7  5  7  6  6  7  6  6
++         7  7  5  7  6  0  0  0  0  0  0  0  0  0  0  0  0
%c M  cc GPS ccc cccc cccc cccc cccc ccccc ccccc ccccc ccccc
%c cc cc ccc ccc cccc cccc cccc cccc ccccc ccccc ccccc ccccc
%f  1.2500000  1.025000000  0.00000000000  0.000000000000000
%f  0.0000000  0.000000000  0.00000000000  0.000000000000000
%i    0    0    0    0      0      0      0      0         0
%i    0    0    0    0      0      0      0      0         0
/* INFORMATION & ANALYSIS CENTER (IAC)            FINAL DATA
/* S/V CLOCKS ARE ALIGNED TO GNSS TIME                      
/* G:C1WC2W R:C1PC2P E:C1XC5X C:C2IC6I J:C1CC2S             
/* PCV:IGS14_2148 OL/AL:FES2004  NONE     YN ORB:CoN CLK:CoN
*  2021 04 05 13 45  0.00000000
PC01 -34331.455372  24440.258789   -176.923438   -588.941409
PC02   4338.315156  41949.635621    827.056360    783.799267
PC03 -14866.023862  39427.462833   1125.119143   -428.784666
PC04 -39573.039317  14530.830640    175.534379    491.459641
PC05  21830.377872  36060.681961    552.035823     60.356412
PC06 -24941.059838  32030.135454 -11814.609626    247.431973
PC07 -10248.869173  33336.080306 -23084.251857    -89.478608
PC08 -14167.881226  17358.474441  35782.615647   -894.190601
PC09 -12477.053399  31806.356682 -24695.037314    617.592109
PC10   1303.448321  40120.799723 -11939.574753    -60.987854
PC11  24480.670653  -6146.007738  11999.879613   -827.087571
PC12  14053.404794   8571.057655  22568.870077    920.051284
PC13   1159.556538  23715.514677  34978.260476    209.305774
PC14  15954.688160    100.690270 -22862.505246    390.377493
PC16 -21359.824426  32831.900923 -15764.065131   -768.396572
PC19 -14101.827783  11071.890873  21411.620044    787.643769
PC20 -15377.969657  -9608.035952  21242.404616   -946.481563
PC21   7447.107006  25555.428203  -8317.338722   -924.475826
PC22  -4645.963881  25944.044938   9133.379257   -948.990795
PC23   4893.077548 -15631.409771  22592.415051   -884.072923
PC24  25386.571436  11500.961229   1661.049830   -804.116912
PC25  21162.517752  -3982.880782  17753.550777   -937.265585
PC26  15576.812304  18459.273407 -14017.272074    925.316978
PC27  -5129.343748 -15352.500716 -22748.380263    510.421614
PC28  13765.027275 -20043.729067 -13693.121651    -89.897757
PC29 -23985.780060  13874.606438  -3351.564987    374.696370
PC30 -20702.223659  -1343.455634 -18682.620867    457.932020
PC32  -7680.042197 -25504.913509   8362.400996   -931.264241
PC33  14062.898838 -11117.305942 -21379.085764   -942.546491
PC34  21077.310292    838.369123  18246.156150   -702.794633
PC35 -13349.549167  20537.353107  13400.729462   -341.292631
PC36 -21452.152027   3214.021829 -17535.330592   -734.163207
PC37 -14328.306740 -18913.836681  14684.522577   -889.678578
PC38 -10912.987682  21241.026797  34771.773421    140.342452
PC39 -17505.866006  34272.826807 -17377.276032     30.038505
PC40  -2617.743182  39481.371725 -14338.853485    148.119928
PC41   4701.321885 -25866.826861  -9296.051141   -939.525854
PC42  15269.031743  10353.401156 -20884.918472   -929.024750
PC43  24150.130900 -13426.305749   3790.946498   -671.782825
PC44   5442.078518  15421.613600  22607.384190    122.233930
PC45  -4685.580389  15588.315473 -22668.774101    405.739848
PC46 -25565.586339 -10834.822410  -2579.839870    330.185791
PC60   7250.862409  41515.001168   1040.121183      0.675574
PE01  21274.522848  18365.760606   9298.621244  -1080.582972
PE02 -21298.169059 -18257.559327  -9421.159344    210.026668
PE03 -14140.384747 -10057.565556  23984.821807   -416.776705
PE04  19619.461275 -11130.904608 -19157.072252   -743.812351
PE05   -278.717603 -25640.492611  14794.824137   -291.278941
PE07 -13616.659961  26112.589534   2944.400497   -521.796324
PE08 -19457.261760  11575.422876  19067.823605   6022.275778
PE09  13366.719371 -26272.149775  -2775.934231   5711.019913
PE11  16355.617955 -14941.368270 -19625.404918   6127.954426
PE12  28987.825504  -5300.814315  -2642.558812   5274.809570
PE13 -16760.557492  14816.832447  19396.151710    414.584625
PE14 -22598.019931   1430.512053 -20393.973871  -1386.468922
PE15 -28982.141813   5423.103669   2688.257849    821.014548
PE18  20830.137794 -15455.673908   7584.453293  -1516.597353
PE19  12737.382403  12294.024328 -23714.642736    244.675167
PE21  11611.235394  25748.342446  -8870.243928   -657.621241
PE24   5940.416149 -17951.269907  22750.478207   -830.913762
PE25 -11465.733338 -25744.255086   9040.619884   -530.233310
PE26   6131.460865  15502.729133  24463.980669   1959.640985
PE27  -5176.480129  18513.143616 -22513.399470     -4.737759
PE30 -19237.937658   -496.687754 -22497.939256   3049.475652
PE31  18826.075716   -432.917440  22841.939396   -479.863602
PE33  24114.072520   7163.343090  15595.707205   -467.238210
PE36  -5338.950236 -15470.500201 -24659.507962   -189.595617
PG01 -14506.997315 -13499.967064 -18103.854254    724.006454
PG02 -10877.892676  14057.657486  20406.190708   -592.877981
PG03 -13012.694500 -23015.519249   3013.349092   -128.269992
PG04  -5247.841765 -16473.064191  20155.534017   -190.216709
PG05   1872.148788  23161.593597  12546.859765    -38.221070
PG06 -22245.279447   6712.292386  12984.700309      5.103701
PG07 -24743.140627  -7617.999006   7335.730923    112.683156
PG08   1555.901987 -21370.403038 -15495.731227    -16.395624
PG09 -14066.264515  -6471.267072  21523.138928   -336.663865
PG10  15754.253602   -894.702715 -21288.363495    -95.764675
PG11  -9196.113935 -13807.952099 -21161.425617     21.119212
PG12   9421.615900  24922.325756   -137.485688    -23.724914
PG13 -11352.317973  22040.349446  -9482.075576    116.274211
PG14 -16196.748735   -385.157713 -21062.116419     97.928475
PG15   1630.354725  21506.598848 -15624.243883   -158.256968
PG16   2965.239576 -21447.193371  14817.028595   -304.981813
PG17 -19918.930657  10237.996778 -13849.744309    421.485037
PG18  25874.070491   5148.346691   3344.951805    351.540061
PG19 -20144.021245  15756.615567  -7251.585346    -16.943676
PG20  18651.148400  17124.907571  -8452.368384    523.485701
PG21  -6881.445233 -14545.518891 -20494.865845    108.692536
PG22  -8992.838302 -24257.582695  -6220.876412   -644.818854
PG23  18030.687191  10479.076384 -16492.835184    115.010088
PG24   9332.844608  15033.176748 -20157.150729      0.155120
PG25  16800.670942  17165.087980  11370.728923    112.738312
PG26   9180.832568 -14315.463906  20284.897635     68.001502
PG27  11433.342529 -23093.471065  -5731.199178   -107.212143
PG28 -14810.131763   1840.813544 -21401.075279    591.400706
PG29  13512.030363   6440.197845  21897.843228   -324.642238
PG30 -26039.338332   1207.694790  -5647.786821   -408.605065
PG31  20736.795139  -8120.335717  14733.317632   -109.807037
PG32  19513.577694 -12360.683195 -12850.609272     22.009078
PJ01 -28675.783782  26026.323626  21631.993156   -362.239022
PJ02 -21796.840633  18801.281420 -26354.463972      4.808924
PJ03 -29842.297710  29708.944454   7805.363820     -2.849841
PJ07 -25417.420786  33650.173599      4.047866     -0.003840
PR01  10889.788497   2280.308935 -22947.149475     77.440820
PR02   9293.336584 -18804.163466 -14427.349103    473.612433
PR03   1992.477280 -25300.417199   2333.344177     33.667618
PR04  -6142.492481 -17443.501792  17597.926459     81.046592
PR05 -10917.218266    122.033393  23069.515191     69.437533
PR07  -1776.490302  25305.756135  -2841.889916    -42.558089
PR08   6209.547802  17458.120025 -17481.111507    -58.369867
PR09 -10096.562700   6358.058610 -22539.189504    -13.565388
PR11  18960.968116  16438.032747  -4542.220445      1.474069
PR12  20539.302988   7489.638229  13182.829693    218.383016
PR13  10372.498528  -5766.348991  22558.616585    -53.006717
PR14  -6408.265725 -16063.718284  18761.221388     62.811775
PR15 -18886.190242 -16642.011425   4132.281976    104.535507
PR16 -20381.791008  -6166.377382 -13968.864545    -13.415691
PR17   6921.591852 -13123.143796 -20749.988592    413.796636
PR18 -10462.374448  -6516.301656 -22328.347384     72.195196
PR19 -21988.977573   2423.890186 -12702.934344   -138.584391
PR20 -21624.614486  11622.527040   7025.863171    -46.706350
PR21  -5739.805563  12771.283202  21316.430238   -199.565042
PR22  11290.466552   6014.748670  22033.212628   -106.273792
PR24  21031.184117 -12253.910841  -7622.287257     37.690904
EOF
